BEIDOU-3S IGSO-1S       
1 40549U 15019A   26183.80025122 -.00000190  00000+0  00000+0 0  9997
2 40549  49.1798 295.2769 0076860 219.1125 144.2493  1.00680073 41232
BEIDOU-3S M2S           
1 40748U 15037A   26191.41220186 -.00000067  00000+0  00000+0 0  9994
2 40748  54.8489 301.2473 0009273 257.2247 102.6907  1.86232238 74554
BEIDOU-3S M1S           
1 40749U 15037B   26190.00611867 -.00000066  00000+0  00000+0 0  9998
2 40749  54.8466 301.2825 0002899  63.4682 296.5816  1.86254781 74535
GSAT0206 (GALILEO 10)   
1 40890U 15045B   26191.33403541  .00000090  00000+0  00000+0 0  9995
2 40890  54.9400 220.9648 0002065 329.8405  30.2271  1.70473539 67434
BEIDOU-3S IGSO-2S       
1 40938U 15053A   26191.65671527 -.00000097  00000+0  00000+0 0  9991
2 40938  49.1849 258.5030 0066299 193.1118 167.0935  1.00254238 39592
GSAT-15                 
1 41028U 15065A   26192.51219931  .00000000  00000+0  00000+0 0  9991
2 41028   0.0221  39.3064 0003553  53.0830 114.9333  1.00269469 39049
GSAT0209 (GALILEO 12)   
1 41174U 15079A   26189.15594789 -.00000008  00000+0  00000+0 0  9990
2 41174  55.8390 100.6867 0004997 350.6288   9.3765  1.70473596 65135
GSAT0208 (GALILEO 11)   
1 41175U 15079B   26189.37634046 -.00000009  00000+0  00000+0 0  9997
2 41175  55.8379 100.6775 0004423  15.9812 344.0466  1.70473357 65557
IRNSS-1E                
1 41241U 16003A   26191.58253116 -.00000316  00000+0  00000+0 0  9991
2 41241  33.2836  59.4106 0019285 178.7449  11.7354  1.00267797 38314
COSMOS 2514 [GLONASS-M] 
1 41330U 16008A   26192.21743840 -.00000062  00000+0  00000+0 0  9992
2 41330  65.0058 312.1821 0012191 200.7153 159.2416  2.13102486 81135
BEIDOU-2 IGSO-6         
1 41434U 16021A   26177.11016981 -.00000145  00000+0  00000+0 0  9995
2 41434  60.2385  37.9495 0057558 231.0163 137.2672  1.00258926 37578
IRNSS-1G                
1 41469U 16027A   26192.51939265 -.00000334  00000+0  00000+0 0  9999
2 41469   5.2538  96.9107 0005966   9.7716 139.3966  1.00272973 37421
GSAT0211 (GALILEO 14)   
1 41549U 16030A   26191.84633793  .00000090  00000+0  00000+0 0  9992
2 41549  55.0905 221.0437 0003314 318.6557  41.3997  1.70473688 63077
GSAT0210 (GALILEO 13)   
1 41550U 16030B   26190.93041336  .00000089  00000+0  00000+0 0  9997
2 41550  55.0899 221.0670 0004683 245.4873 114.5425  1.70474002 63056
BEIDOU-2 G7             
1 41586U 16037A   26192.51557932 -.00000349  00000+0  00000+0 0  9993
2 41586   1.7765  69.4798 0006078 359.6440 156.4114  1.00275294  7130
EUTELSAT 117 WEST B     
1 41589U 16038B   26192.47051299 -.00000005  00000+0  00000+0 0  9996
2 41589   0.0096 144.2626 0000172   5.6068 191.9052  1.00267983 36905
GSAT0207 (GALILEO 15)   
1 41859U 16069A   26190.03578203 -.00000014  00000+0  00000+0 0  9999
2 41859  55.5102 100.4816 0004251 344.5564  15.4422  1.70473324 59777
GSAT0212 (GALILEO 16)   
1 41860U 16069B   26188.12942102 -.00000003  00000+0  00000+0 0  9999
2 41860  55.5076 100.5296 0004380   9.6218 350.4046  1.70473650 59990
GSAT0213 (GALILEO 17)   
1 41861U 16069C   26191.42949498 -.00000024  00000+0  00000+0 0  9995
2 41861  55.5116 100.4460 0004394 317.3165  42.6580  1.70474095 59912
GSAT0214 (GALILEO 18)   
1 41862U 16069D   26192.16233916 -.00000028  00000+0  00000+0 0  9993
2 41862  55.5107 100.4185 0003822 326.4011  33.5832  1.70473737 60051
SES-15                  
1 42709U 17026A   26192.49766963  .00000065  00000+0  00000+0 0  9997
2 42709   0.0255 325.2354 0000838 172.2084 201.9672  1.00277471  7679
QZS-2 (MICHIBIKI-2)     
1 42738U 17028A   26192.44628137 -.00000092  00000+0  00000+0 0  9997
2 42738  39.3917 242.7960 0757869 269.5570  80.0293  1.00277698  7867
QZS-3 (MICHIBIKI-3)     
1 42917U 17048A   26192.54793358 -.00000342  00000+0  00000+0 0  9995
2 42917   0.0714 217.6952 0002501 267.3883 128.6444  1.00273919 32505
COSMOS 2522 [GLONASS-M] 
1 42939U 17055A   26191.11660740  .00000122  00000+0  00000+0 0  9992
2 42939  64.0805 191.1038 0010910 240.8947 119.0275  2.13101919 68466
QZS-4 (MICHIBIKI-4)     
1 42965U 17062A   26192.29419877 -.00000323  00000+0  00000+0 0  9996
2 42965  40.0943 343.1792 0747464 268.4828 282.3291  1.00291125 32044
BEIDOU-3 M1             
1 43001U 17069A   26192.29607689 -.00000044  00000+0  00000+0 0  9995
2 43001  56.7122  62.2913 0009358 328.5937  31.4164  1.86231117 59056
BEIDOU-3 M2             
1 43002U 17069B   26191.16097920 -.00000046  00000+0  00000+0 0  9994
2 43002  56.7107  62.3639 0008255 357.9796   2.0799  1.86230592 59021
GSAT0215 (GALILEO 19)   
1 43055U 17079A   26190.30564403  .00000088  00000+0  00000+0 0  9998
2 43055  55.0687 220.8977 0003623 268.5833  91.4517  1.70474298 53360
